ORBCOMM-X [-]           
1 21576U 91050C   23279.41787613  .00000807  00000+0  25834-3 0  9995
2 21576  98.4242 345.3706 0002555 250.2441 109.8473 14.42197605692755
ORBCOMM FM01 [-]        
1 23545U 95017A   23279.42159539  .00007633  00000+0  10985-2 0  9995
2 23545  69.9680 161.6315 0006023 206.3748 153.7094 14.76695872520644
ORBCOMM FM02 [-]        
1 23546U 95017B   23279.45682240  .00008555  00000+0  12436-2 0  9996
2 23546  69.9703 180.5713 0007356 193.3979 166.6974 14.76207457520305
ORBCOMM FM08 [-]        
1 25112U 97084A   23279.74073440  .00003537  00000+0  11260-2 0  9990
2 25112  45.0137  90.1157 0006658   4.7311 355.3600 14.41326957352045
ORBCOMM FM10 [-]        
1 25113U 97084B   23279.73698739  .00003496  00000+0  11149-2 0  9994
2 25113  45.0150  91.8479 0004369 331.2650  28.7958 14.41269941352032
ORBCOMM FM11 [+]        
1 25114U 97084C   23279.53052643  .00003438  00000+0  10996-2 0  9996
2 25114  45.0137  92.7363 0005130 331.1261  28.9304 14.41154697351963
ORBCOMM FM12 [-]        
1 25115U 97084D   23279.69462357  .00003376  00000+0  10809-2 0  9995
2 25115  45.0151  91.5960 0004138 333.3282  26.7355 14.41145945352020
ORBCOMM FM09 [-]        
1 25116U 97084E   23279.56271213  .00003198  00000+0  10267-2 0  9991
2 25116  45.0148  92.8549 0005322 312.9001  47.1402 14.41126583351972
